STARLINK-31470          
1 59569U 24076F   26068.24231459 -.00003688  00000+0 -12462-3 0  9999
2 59569  43.0015   8.1268 0001517 254.4295 105.6390 15.27568468106383
FLOCK 4G-8              
1 62613U 25009E   26068.72381419  .00013559  00000+0  50438-3 0  9996
2 62613  97.4045 151.2834 0003050 315.2538  44.8455 15.27623414 63721
